SHIJIAN-6 04B (SJ-6 04B)
1 37180U 10051B   26068.97672661  .00001181  00000+0  10221-3 0  9991
2 37180  97.8755  73.3683 0008821 293.8275  66.2023 14.99121194840818
STARLINK-3100           
1 49144U 21082Q   26068.96848669 -.00000453  00000+0 -30178-4 0  9999
2 49144  69.9982 293.7423 0002748 269.0008  91.0837 14.98327643246022
